[{"OBJECT_NAME":"YAOGAN-14","OBJECT_ID":"2012-021A","EPOCH":"2026-03-09T23:13:16.463424","MEAN_MOTION":15.26486019,"ECCENTRICITY":0.00056417,"INCLINATION":97.2863,"RA_OF_ASC_NODE":208.4378,"ARG_OF_PERICENTER":161.6562,"MEAN_ANOMALY":198.4882,"EPHEMERIS_TYPE":0,"CLASSIFICATION_TYPE":"U","NORAD_CAT_ID":38257,"ELEMENT_SET_NO":999,"REV_AT_EPOCH":77067,"BSTAR":0.00037795498,"MEAN_MOTION_DOT":9.798e-5,"MEAN_MOTION_DDOT":0},{"OBJECT_NAME":"STARLINK-31615","OBJECT_ID":"2024-064R","EPOCH":"2026-03-08T05:48:26.860320","MEAN_MOTION":15.27584219,"ECCENTRICITY":0.00011088,"INCLINATION":43.0017,"RA_OF_ASC_NODE":57.4665,"ARG_OF_PERICENTER":254.627,"MEAN_ANOMALY":105.4459,"EPHEMERIS_TYPE":0,"CLASSIFICATION_TYPE":"U","NORAD_CAT_ID":59413,"ELEMENT_SET_NO":999,"REV_AT_EPOCH":10908,"BSTAR":7.4625094e-5,"MEAN_MOTION_DOT":1.792e-5,"MEAN_MOTION_DDOT":0}]
